{"type":"FeatureCollection","features":[{"type":"Feature","geometry":{"type":"Point","coordinates":[134.6431933,34.2391428]},"properties":{"id":265049730,"name":"孫崎灯台"}},{"type":"Feature","geometry":{"type":"Point","coordinates":[135.861936,33.4716039]},"properties":{"id":289118554,"name":"樫野埼灯台"}},{"type":"Feature","geometry":{"type":"Point","coordinates":[135.5503272,35.4967835]},"properties":{"id":402350938,"name":"若狭高浜島堤燈台"}},{"type":"Feature","geometry":{"type":"Point","coordinates":[135.458956,34.5834853]},"properties":{"id":462138633,"name":"旧堺燈台"}},{"type":"Feature","geometry":{"type":"Point","coordinates":[140.1139617,41.8681884]},"properties":{"id":473368158,"name":"鴎島灯台"}},{"type":"Feature","geometry":{"type":"Point","coordinates":[136.9941302,35.3415977]},"properties":{"id":746458514,"name":"品川燈台"}},{"type":"Feature","geometry":{"type":"Point","coordinates":[140.6322922,36.5093639]},"properties":{"id":752443273,"name":"日立灯台"}},{"type":"Feature","geometry":{"type":"Point","coordinates":[130.8624277,34.1100716]},"properties":{"id":920270978,"name":"本州最西端の地"}},{"type":"Feature","geometry":{"type":"Point","coordinates":[132.0828014,32.9325046]},"properties":{"id":929170638,"name":"鶴御崎灯台"}},{"type":"Feature","geometry":{"type":"Point","coordinates":[132.0149389,33.3430802]},"properties":{"id":930008912,"name":"佐田岬灯台"}},{"type":"Feature","geometry":{"type":"Point","coordinates":[131.6853909,32.4233692]},"properties":{"id":951252217,"name":"細島灯台"}},{"type":"Feature","geometry":{"type":"Point","coordinates":[133.053052,35.463328]},"properties":{"id":1009513807,"name":"青柳楼の大灯籠"}},{"type":"Feature","geometry":{"type":"Point","coordinates":[141.5341363,40.5382641]},"properties":{"id":1196973887,"name":"八戸港白銀西防波堤西灯台"}},{"type":"Feature","geometry":{"type":"Point","coordinates":[141.5482447,40.5393995]},"properties":{"id":1196973907,"name":"八戸港白銀北防波堤灯台"}},{"type":"Feature","geometry":{"type":"Point","coordinates":[141.5349892,40.5658441]},"properties":{"id":1196973908,"name":"八戸港中央防波堤北灯台"}},{"type":"Feature","geometry":{"type":"Point","coordinates":[141.5468392,40.537783]},"properties":{"id":1196973925,"name":"八戸港白銀西防波堤東灯台"}},{"type":"Feature","geometry":{"type":"Point","coordinates":[141.5145467,40.5524208]},"properties":{"id":1197003633,"name":"八戸港八太郎東防波堤灯台"}},{"type":"Feature","geometry":{"type":"Point","coordinates":[142.5013026,45.0588646]},"properties":{"id":1211610669,"name":"北見神威岬灯台"}},{"type":"Feature","geometry":{"type":"Point","coordinates":[140.0330684,41.4436033]},"properties":{"id":1211612045,"name":"ヨシ島灯台"}},{"type":"Feature","geometry":{"type":"Point","coordinates":[141.0469847,38.2655751]},"properties":{"id":1211619644,"name":"政宗灯台"}},{"type":"Feature","geometry":{"type":"Point","coordinates":[140.8652474,35.6929018]},"properties":{"id":1211620269,"name":"長崎鼻一ノ島照射灯"}},{"type":"Feature","geometry":{"type":"Point","coordinates":[140.739331,35.6931774]},"properties":{"id":1211620275,"name":"刑部岬灯台"}},{"type":"Feature","geometry":{"type":"Point","coordinates":[140.3191076,35.1379795]},"properties":{"id":1211620322,"name":"勝浦灯台"}},{"type":"Feature","geometry":{"type":"Point","coordinates":[139.4898367,34.1128658]},"properties":{"id":1211620398,"name":"伊豆岬灯台"}},{"type":"Feature","geometry":{"type":"Point","coordinates":[139.7452765,35.2561422]},"properties":{"id":1211620706,"name":"観音埼灯台"}},{"type":"Feature","geometry":{"type":"Point","coordinates":[139.6111277,35.1350791]},"properties":{"id":1211621029,"name":"城ヶ島灯台"}},{"type":"Feature","geometry":{"type":"Point","coordinates":[139.4431599,34.6857717]},"properties":{"id":1211621162,"name":"竜王崎灯台"}},{"type":"Feature","geometry":{"type":"Point","coordinates":[139.3486602,34.7518414]},"properties":{"id":1211621177,"name":"元町港突堤灯台"}},{"type":"Feature","geometry":{"type":"Point","coordinates":[134.8281638,34.1682884]},"properties":{"id":1223938561,"name":"沼島灯台"}},{"type":"Feature","geometry":{"type":"Point","coordinates":[134.8165731,34.1699331]},"properties":{"id":1223938562,"name":"沼島港西防波堤灯台"}},{"type":"Feature","geometry":{"type":"Point","coordinates":[134.8195745,34.1721986]},"properties":{"id":1223938563,"name":"沼島港泊防波堤灯台"}},{"type":"Feature","geometry":{"type":"Point","coordinates":[135.3456268,34.4711964]},"properties":{"id":1223938610,"name":"阪南港阪南二区南防波堤灯台"}},{"type":"Feature","geometry":{"type":"Point","coordinates":[135.4093673,34.5579594]},"properties":{"id":1223938622,"name":"堺浜寺北防波堤灯台"}},{"type":"Feature","geometry":{"type":"Point","coordinates":[135.4093563,34.554968]},"properties":{"id":1223938624,"name":"堺浜寺南防波堤灯台"}},{"type":"Feature","geometry":{"type":"Point","coordinates":[135.3964782,34.5956103]},"properties":{"id":1223938627,"name":"大阪港大和川南防波堤南灯台"}},{"type":"Feature","geometry":{"type":"Point","coordinates":[135.388007,34.6050954]},"properties":{"id":1223938628,"name":"大阪港大和川南防波堤北灯台"}},{"type":"Feature","geometry":{"type":"Point","coordinates":[135.4012892,34.6108127]},"properties":{"id":1223938629,"name":"大阪港大和川北防波堤灯台"}},{"type":"Feature","geometry":{"type":"Point","coordinates":[135.4206257,34.6108263]},"properties":{"id":1223938630,"name":"大阪南港沖防波堤灯台"}},{"type":"Feature","geometry":{"type":"Point","coordinates":[135.3450822,34.7196777]},"properties":{"id":1223938642,"name":"大関酒造今津灯台"}},{"type":"Feature","geometry":{"type":"Point","coordinates":[135.1886615,34.6797416]},"properties":{"id":1223938643,"name":"神戸メリケンパークオリエンタルホテル灯台"}},{"type":"Feature","geometry":{"type":"Point","coordinates":[134.2951267,34.6805968]},"properties":{"id":1223938752,"name":"大多府島灯台"}},{"type":"Feature","geometry":{"type":"Point","coordinates":[134.5832303,34.6578291]},"properties":{"id":1223938763,"name":"男鹿島灯台"}},{"type":"Feature","geometry":{"type":"Point","coordinates":[134.4354723,34.6513055]},"properties":{"id":1223938772,"name":"院下島灯台"}},{"type":"Feature","geometry":{"type":"Point","coordinates":[134.0530371,34.3882363]},"properties":{"id":1223939082,"name":"Ogre's Light House"}},{"type":"Feature","geometry":{"type":"Point","coordinates":[134.0512257,34.3884336]},"properties":{"id":1223939083,"name":"Red Light House"}},{"type":"Feature","geometry":{"type":"Point","coordinates":[133.5337641,34.3000442]},"properties":{"id":1223939142,"name":"六島灯台"}},{"type":"Feature","geometry":{"type":"Point","coordinates":[133.2678365,34.1951976]},"properties":{"id":1223939144,"name":"高井神島灯台"}},{"type":"Feature","geometry":{"type":"Point","coordinates":[132.9960891,34.1181303]},"properties":{"id":1223939285,"name":"ナガセ鼻灯台"}},{"type":"Feature","geometry":{"type":"Point","coordinates":[132.1341096,33.7136377]},"properties":{"id":1223939418,"name":"八島灯台"}},{"type":"Feature","geometry":{"type":"Point","coordinates":[131.7006822,33.7306541]},"properties":{"id":1223939600,"name":"姫島灯台"}},{"type":"Feature","geometry":{"type":"Point","coordinates":[130.6594857,30.9921271]},"properties":{"id":1223941437,"name":"佐多岬灯台"}},{"type":"Feature","geometry":{"type":"Point","coordinates":[129.6892551,28.5294082]},"properties":{"id":1271036706,"name":"笠利崎灯台"}},{"type":"Feature","geometry":{"type":"Point","coordinates":[129.6210612,28.4762837]},"properties":{"id":1271036778,"name":"今井埼灯台"}},{"type":"Feature","geometry":{"type":"Point","coordinates":[129.5233412,28.4450782]},"properties":{"id":1271036788,"name":"梵論瀬埼灯台"}},{"type":"Feature","geometry":{"type":"Point","coordinates":[124.3159707,24.6103233]},"properties":{"id":1271038682,"name":"平久保灯台"}},{"type":"Feature","geometry":{"type":"Point","coordinates":[139.6516263,35.4468327]},"properties":{"id":1271628898,"name":"旧横浜東水堤灯台"}},{"type":"Feature","geometry":{"type":"Point","coordinates":[133.0202873,32.7240332]},"properties":{"id":1275225566,"name":"足摺岬灯台"}},{"type":"Feature","geometry":{"type":"Point","coordinates":[124.078657,24.452599]},"properties":{"id":1297064343,"name":"御神崎灯台"}},{"type":"Feature","geometry":{"type":"Point","coordinates":[132.965137,32.731722]},"properties":{"id":1331979329,"name":"臼碆灯台"}},{"type":"Feature","geometry":{"type":"Point","coordinates":[136.9279138,34.413333]},"properties":{"id":1384378045,"name":"錨崎灯台"}},{"type":"Feature","geometry":{"type":"Point","coordinates":[137.0162186,34.5794085]},"properties":{"id":1385388172,"name":"伊良湖岬灯台"}},{"type":"Feature","geometry":{"type":"Point","coordinates":[138.8451931,34.602733]},"properties":{"id":1385403405,"name":"石廊崎灯台"}},{"type":"Feature","geometry":{"type":"Point","coordinates":[131.9022099,33.2667383]},"properties":{"id":1415743064,"name":"関埼灯台"}},{"type":"Feature","geometry":{"type":"Point","coordinates":[140.1898263,42.824927]},"properties":{"id":1461097728,"name":"弁慶岬灯台"}},{"type":"Feature","geometry":{"type":"Point","coordinates":[141.183463,41.8152204]},"properties":{"id":1467565514,"name":"恵山岬灯台"}},{"type":"Feature","geometry":{"type":"Point","coordinates":[140.8685261,35.7079127]},"properties":{"id":1582440591,"name":"犬吠埼燈台"}},{"type":"Feature","geometry":{"type":"Point","coordinates":[138.5304146,35.0106333]},"properties":{"id":1785723073,"name":"清水灯台"}},{"type":"Feature","geometry":{"type":"Point","coordinates":[138.5160233,35.0206474]},"properties":{"id":1785723074,"name":"清水真崎灯台"}},{"type":"Feature","geometry":{"type":"Point","coordinates":[129.4303798,33.4398032]},"properties":{"id":1801645273,"name":"大バエ灯台"}},{"type":"Feature","geometry":{"type":"Point","coordinates":[138.2257124,34.5958265]},"properties":{"id":1804881162,"name":"御前埼灯台"}},{"type":"Feature","geometry":{"type":"Point","coordinates":[139.9976958,41.6489899]},"properties":{"id":1817092701,"name":"日方泊岬灯台"}},{"type":"Feature","geometry":{"type":"Point","coordinates":[135.0611111,33.8819444]},"properties":{"id":1920874662,"name":"日ノ御埼"}},{"type":"Feature","geometry":{"type":"Point","coordinates":[130.8505556,33.9411111]},"properties":{"id":1920874663,"name":"Wakamatu Dokai Wan Ko (Entrance) Bohatei (Breakwater) Todai (Lighthouse)"}},{"type":"Feature","geometry":{"type":"Point","coordinates":[140.0420592,41.4445197]},"properties":{"id":1924799765,"name":"館浜漁港灯台"}},{"type":"Feature","geometry":{"type":"Point","coordinates":[140.0943226,41.4208493]},"properties":{"id":1924800905,"name":"松前港灯台"}},{"type":"Feature","geometry":{"type":"Point","coordinates":[140.0886953,41.4189039]},"properties":{"id":1924801254,"name":"松前灯台"}},{"type":"Feature","geometry":{"type":"Point","coordinates":[140.0285119,41.4682988]},"properties":{"id":1924801735,"name":"札前漁港灯台"}},{"type":"Feature","geometry":{"type":"Point","coordinates":[140.1268145,41.4292739]},"properties":{"id":1924801825,"name":"朝日漁港灯台"}},{"type":"Feature","geometry":{"type":"Point","coordinates":[140.0234587,41.4800031]},"properties":{"id":1924803451,"name":"赤神漁港灯台"}},{"type":"Feature","geometry":{"type":"Point","coordinates":[140.0190888,41.4839395]},"properties":{"id":1924803982,"name":"静浦漁港灯台"}},{"type":"Feature","geometry":{"type":"Point","coordinates":[140.0135527,41.4939614]},"properties":{"id":1924806259,"name":"茂草漁港灯台"}},{"type":"Feature","geometry":{"type":"Point","coordinates":[140.0025455,41.5215979]},"properties":{"id":1924807757,"name":"清部漁港灯台"}},{"type":"Feature","geometry":{"type":"Point","coordinates":[139.9860794,41.5454789]},"properties":{"id":1924813101,"name":"江良漁港灯台"}},{"type":"Feature","geometry":{"type":"Point","coordinates":[139.9825067,41.6044548]},"properties":{"id":1924814439,"name":"原口漁港灯台"}},{"type":"Feature","geometry":{"type":"Point","coordinates":[140.1421214,41.4261593]},"properties":{"id":1924823638,"name":"大沢漁港灯台"}},{"type":"Feature","geometry":{"type":"Point","coordinates":[140.1713575,41.4105912]},"properties":{"id":1924824373,"name":"白神漁港灯台"}},{"type":"Feature","geometry":{"type":"Point","coordinates":[140.1974272,41.3980745]},"properties":{"id":1924825185,"name":"白神岬灯台"}},{"type":"Feature","geometry":{"type":"Point","coordinates":[140.2412919,41.4452729]},"properties":{"id":1927133935,"name":"吉岡港灯台"}},{"type":"Feature","geometry":{"type":"Point","coordinates":[142.0712543,39.546729]},"properties":{"id":1930761501,"name":"魹ヶ崎灯台"}},{"type":"Feature","geometry":{"type":"Point","coordinates":[136.9895141,35.3460682]},"properties":{"id":2119125807,"name":"小那沙美島燈台"}},{"type":"Feature","geometry":{"type":"Point","coordinates":[145.1677969,43.0772985]},"properties":{"id":2140167781,"name":"湯沸岬灯台"}},{"type":"Feature","geometry":{"type":"Point","coordinates":[130.9630422,33.9621318]},"properties":{"id":2142757764,"name":"門司埼灯台"}},{"type":"Feature","geometry":{"type":"Point","coordinates":[139.1727359,35.0385148]},"properties":{"id":2179826643,"name":"初島灯台"}},{"type":"Feature","geometry":{"type":"Point","coordinates":[141.5332711,40.5363316]},"properties":{"id":2481695253,"name":"八戸港河原木南防波堤東灯台"}},{"type":"Feature","geometry":{"type":"Point","coordinates":[141.5280048,40.5587259]},"properties":{"id":2481695278,"name":"八戸港八太郎北防波堤灯台"}},{"type":"Feature","geometry":{"type":"Point","coordinates":[141.0011886,42.3021376]},"properties":{"id":2519600553,"name":"チキウ岬灯台"}},{"type":"Feature","geometry":{"type":"Point","coordinates":[134.7494444,33.8341667]},"properties":{"id":2677477799,"name":"蒲生田岬灯台"}},{"type":"Feature","geometry":{"type":"Point","coordinates":[128.6644777,32.7843134]},"properties":{"id":2706658380,"name":"柏崎灯台"}},{"type":"Feature","geometry":{"type":"Point","coordinates":[122.9343513,24.4499743]},"properties":{"id":2771804003,"name":"西崎灯台"}},{"type":"Feature","geometry":{"type":"Point","coordinates":[123.0430321,24.46226]},"properties":{"id":2771804858,"name":"東崎灯台"}},{"type":"Feature","geometry":{"type":"Point","coordinates":[136.6127284,35.3561893]},"properties":{"id":2784877005,"name":"住吉灯台"}},{"type":"Feature","geometry":{"type":"Point","coordinates":[132.3600149,34.2511521]},"properties":{"id":2787766711,"name":"俎石灯標"}},{"type":"Feature","geometry":{"type":"Point","coordinates":[132.9181087,34.1888634]},"properties":{"id":2819877888,"name":"大下島灯台"}},{"type":"Feature","geometry":{"type":"Point","coordinates":[143.2439925,41.9258234]},"properties":{"id":2838775501,"name":"襟裳岬灯台"}},{"type":"Feature","geometry":{"type":"Point","coordinates":[125.2355577,24.9364738]},"properties":{"id":2902760115,"name":"池間島灯台"}},{"type":"Feature","geometry":{"type":"Point","coordinates":[129.8464199,33.5554833]},"properties":{"id":2910212503,"name":"波戸岬灯台"}},{"type":"Feature","geometry":{"type":"Point","coordinates":[130.5873984,31.1568874]},"properties":{"id":2915436102,"name":"薩摩長崎鼻灯台"}},{"type":"Feature","geometry":{"type":"Point","coordinates":[140.4814198,43.3731865]},"properties":{"id":2993887305,"name":"積丹出岬灯台"}},{"type":"Feature","geometry":{"type":"Point","coordinates":[140.3475436,43.3332345]},"properties":{"id":2993976681,"name":"神威岬灯台"}},{"type":"Feature","geometry":{"type":"Point","coordinates":[141.6451775,45.4495021]},"properties":{"id":3027286449,"name":"稚内灯台"}},{"type":"Feature","geometry":{"type":"Point","coordinates":[134.9834544,34.6401294]},"properties":{"id":3043538073,"name":"明石港西外港沖防波堤東灯台"}},{"type":"Feature","geometry":{"type":"Point","coordinates":[134.9828444,34.6406124]},"properties":{"id":3043538082,"name":"明石港西外港西防波堤灯台"}},{"type":"Feature","geometry":{"type":"Point","coordinates":[134.9905014,34.6412487]},"properties":{"id":3043538101,"name":"明石港東外港西防波堤灯台"}},{"type":"Feature","geometry":{"type":"Point","coordinates":[134.9913381,34.6416497]},"properties":{"id":3043538131,"name":"明石港東外港南防波堤灯台"}},{"type":"Feature","geometry":{"type":"Point","coordinates":[132.9910984,34.1125211]},"properties":{"id":3051342596,"name":"ウズ鼻灯台"}},{"type":"Feature","geometry":{"type":"Point","coordinates":[134.4769445,34.5937208]},"properties":{"id":3066739386,"name":"松島灯台"}},{"type":"Feature","geometry":{"type":"Point","coordinates":[134.5358858,34.6848311]},"properties":{"id":3066754783,"name":"尾崎鼻灯台"}},{"type":"Feature","geometry":{"type":"Point","coordinates":[134.6374042,34.6865576]},"properties":{"id":3066754791,"name":"鞍掛島灯台"}},{"type":"Feature","geometry":{"type":"Point","coordinates":[134.7142842,34.6869784]},"properties":{"id":3066754792,"name":"上島灯台"}},{"type":"Feature","geometry":{"type":"Point","coordinates":[132.5640468,33.9691392]},"properties":{"id":3074371595,"name":"クダコ島"}},{"type":"Feature","geometry":{"type":"Point","coordinates":[135.0651396,34.6214394]},"properties":{"id":3078028828,"name":"平磯灯標"}},{"type":"Feature","geometry":{"type":"Point","coordinates":[134.2976222,34.686384]},"properties":{"id":3079530994,"name":"大多府港一文字防波堤西灯台"}},{"type":"Feature","geometry":{"type":"Point","coordinates":[134.9884896,34.6413066]},"properties":{"id":3080012427,"name":"明石港中外港南防波堤灯台"}},{"type":"Feature","geometry":{"type":"Point","coordinates":[134.5384533,35.6658624]},"properties":{"id":3081643501,"name":"余部埼灯台"}},{"type":"Feature","geometry":{"type":"Point","coordinates":[134.7643575,35.6741236]},"properties":{"id":3081643508,"name":"猫埼灯台"}},{"type":"Feature","geometry":{"type":"Point","coordinates":[139.3886969,34.7927774]},"properties":{"id":3084192335,"name":"岡田港防波堤灯台"}},{"type":"Feature","geometry":{"type":"Point","coordinates":[128.3500754,31.9921763]},"properties":{"id":3090584902,"name":"女島灯台"}},{"type":"Feature","geometry":{"type":"Point","coordinates":[141.1186372,40.8724469]},"properties":{"id":3093431287,"name":"Joyato (old lighthouse)"}},{"type":"Feature","geometry":{"type":"Point","coordinates":[140.9116696,41.5547024]},"properties":{"id":3103747563,"name":"大間埼灯台"}},{"type":"Feature","geometry":{"type":"Point","coordinates":[136.974853,34.697609]},"properties":{"id":3176075362,"name":"師崎港南防波堤灯台"}},{"type":"Feature","geometry":{"type":"Point","coordinates":[136.7245572,37.323732]},"properties":{"id":3281840040,"name":"猿山崎灯台"}},{"type":"Feature","geometry":{"type":"Point","coordinates":[130.9094427,34.0237458]},"properties":{"id":3302639390,"name":"安岡港甲防波堤灯台"}},{"type":"Feature","geometry":{"type":"Point","coordinates":[130.7831526,34.0984866]},"properties":{"id":3306081691,"name":"蓋井島灯台"}},{"type":"Feature","geometry":{"type":"Point","coordinates":[132.9938368,34.3026568]},"properties":{"id":3408996205,"name":"大久野島灯台"}},{"type":"Feature","geometry":{"type":"Point","coordinates":[145.588816,43.2784374]},"properties":{"id":3495901723,"name":"花咲灯台"}},{"type":"Feature","geometry":{"type":"Point","coordinates":[135.7543701,33.4375741]},"properties":{"id":3506191578,"name":"潮岬灯台"}},{"type":"Feature","geometry":{"type":"Point","coordinates":[141.5760374,40.5397173]},"properties":{"id":3656091233,"name":"鮫角灯台"}},{"type":"Feature","geometry":{"type":"Point","coordinates":[141.6245401,38.8305865]},"properties":{"id":3663139078,"name":"陸前大島灯台"}},{"type":"Feature","geometry":{"type":"Point","coordinates":[136.8995292,34.2761539]},"properties":{"id":3665656544,"name":"大王崎灯台"}},{"type":"Feature","geometry":{"type":"Point","coordinates":[136.7524212,34.2704698]},"properties":{"id":3695250062,"name":"御座岬灯台"}},{"type":"Feature","geometry":{"type":"Point","coordinates":[136.8475257,34.2471093]},"properties":{"id":3695250063,"name":"麦崎灯台"}},{"type":"Feature","geometry":{"type":"Point","coordinates":[130.5900461,31.5668386]},"properties":{"id":3708719575,"name":"神瀬灯台"}},{"type":"Feature","geometry":{"type":"Point","coordinates":[127.6698767,26.0792314]},"properties":{"id":3719371492,"name":"喜屋武埼灯台"}},{"type":"Feature","geometry":{"type":"Point","coordinates":[135.5143313,34.6906884]},"properties":{"id":3722269461,"name":"常夜鐙"}},{"type":"Feature","geometry":{"type":"Point","coordinates":[139.7017071,40.0050922]},"properties":{"id":3756878551,"name":"入道埼灯台"}},{"type":"Feature","geometry":{"type":"Point","coordinates":[140.6427308,41.1745714]},"properties":{"id":3905816823,"name":"平舘灯台"}},{"type":"Feature","geometry":{"type":"Point","coordinates":[140.3424107,41.2584925]},"properties":{"id":3906862678,"name":"龍飛埼灯台"}},{"type":"Feature","geometry":{"type":"Point","coordinates":[132.8024168,32.7474873]},"properties":{"id":3925534371,"name":"叶崎灯台"}},{"type":"Feature","geometry":{"type":"Point","coordinates":[132.9930108,32.8631249]},"properties":{"id":3930787591,"name":"布崎灯台"}},{"type":"Feature","geometry":{"type":"Point","coordinates":[133.4618491,33.4304222]},"properties":{"id":3957029655,"name":"白ノ鼻燈台"}},{"type":"Feature","geometry":{"type":"Point","coordinates":[131.5029312,32.068264]},"properties":{"id":3963632891,"name":"富田灯台"}},{"type":"Feature","geometry":{"type":"Point","coordinates":[133.572982,33.4961593]},"properties":{"id":3968917098,"name":"高知灯台"}},{"type":"Feature","geometry":{"type":"Point","coordinates":[124.1115838,24.3657311]},"properties":{"id":3979407857,"name":"観音崎灯台"}},{"type":"Feature","geometry":{"type":"Point","coordinates":[138.8777138,35.0278389]},"properties":{"id":4061477900,"name":"木負消波堤灯台"}},{"type":"Feature","geometry":{"type":"Point","coordinates":[141.1300372,45.186067]},"properties":{"id":4175587007,"name":"沓形岬灯台"}},{"type":"Feature","geometry":{"type":"Point","coordinates":[145.6549524,43.3913983]},"properties":{"id":4221633931,"name":"ノッカマップ埼灯台"}},{"type":"Feature","geometry":{"type":"Point","coordinates":[139.8148639,41.3634699]},"properties":{"id":4269770155,"name":"松前小島灯台"}},{"type":"Feature","geometry":{"type":"Point","coordinates":[139.5562643,39.2000851]},"properties":{"id":4269823005,"name":"飛島灯台"}},{"type":"Feature","geometry":{"type":"Point","coordinates":[139.1233876,34.1903148]},"properties":{"id":4271717281,"name":"神津島灯台"}},{"type":"Feature","geometry":{"type":"Point","coordinates":[140.7119523,42.1368374]},"properties":{"id":4349980531,"name":"砂埼灯台"}},{"type":"Feature","geometry":{"type":"Point","coordinates":[139.4879475,35.2990108]},"properties":{"id":4356770718,"name":"湘南港灯台"}},{"type":"Feature","geometry":{"type":"Point","coordinates":[131.9768762,33.9216698]},"properties":{"id":4362722401,"name":"室積灯台"}},{"type":"Feature","geometry":{"type":"Point","coordinates":[141.0157056,43.2383653]},"properties":{"id":4365846221,"name":"日和山燈台"}},{"type":"Feature","geometry":{"type":"Point","coordinates":[136.1185403,36.2511985]},"properties":{"id":4379121788,"name":"雄島灯台"}},{"type":"Feature","geometry":{"type":"Point","coordinates":[141.2313898,45.2463023]},"properties":{"id":4388544332,"name":"鴛泊灯台"}},{"type":"Feature","geometry":{"type":"Point","coordinates":[142.1956623,27.0935867]},"properties":{"id":4409670962,"name":"青灯台"}},{"type":"Feature","geometry":{"type":"Point","coordinates":[142.199262,27.0960382]},"properties":{"id":4411501737,"name":"赤灯台"}},{"type":"Feature","geometry":{"type":"Point","coordinates":[136.5240915,34.7110365]},"properties":{"id":4438774365,"name":"贄崎灯台"}},{"type":"Feature","geometry":{"type":"Point","coordinates":[139.8550022,33.0791689]},"properties":{"id":4443767736,"name":"八丈島灯台"}},{"type":"Feature","geometry":{"type":"Point","coordinates":[139.7473072,33.1539502]},"properties":{"id":4455067161,"name":"大越鼻灯台"}},{"type":"Feature","geometry":{"type":"Point","coordinates":[134.3453061,35.6077872]},"properties":{"id":4491559176,"name":"大羽尾灯台"}},{"type":"Feature","geometry":{"type":"Point","coordinates":[132.4979096,32.8038551]},"properties":{"id":4501855252,"name":"鵜来島灯台"}},{"type":"Feature","geometry":{"type":"Point","coordinates":[127.2122083,26.5772424]},"properties":{"id":4513643730,"name":"粟国島灯台"}},{"type":"Feature","geometry":{"type":"Point","coordinates":[141.584055,38.276594]},"properties":{"id":4520597005,"name":"金華山灯台"}},{"type":"Feature","geometry":{"type":"Point","coordinates":[133.5579104,34.2618501]},"properties":{"id":4553399851,"name":"讃岐三埼灯台"}},{"type":"Feature","geometry":{"type":"Point","coordinates":[141.4217563,38.3052025]},"properties":{"id":4564967893,"name":"陸前大泊港防波堤灯台"}},{"type":"Feature","geometry":{"type":"Point","coordinates":[141.4180065,38.3112409]},"properties":{"id":4566648690,"name":"二鬼城埼灯台"}},{"type":"Feature","geometry":{"type":"Point","coordinates":[133.3807827,34.3824356]},"properties":{"id":4570272540,"name":"常夜灯"}},{"type":"Feature","geometry":{"type":"Point","coordinates":[130.1120752,32.1259066]},"properties":{"id":4576897055,"name":"長崎鼻灯台"}},{"type":"Feature","geometry":{"type":"Point","coordinates":[136.9184255,37.851419]},"properties":{"id":4596033646,"name":"舳倉島灯台"}},{"type":"Feature","geometry":{"type":"Point","coordinates":[145.3361235,44.3401137]},"properties":{"id":4664987822,"name":"知床岬灯台"}},{"type":"Feature","geometry":{"type":"Point","coordinates":[145.0155271,44.0979315]},"properties":{"id":4664995190,"name":"ウトロ崎灯台"}},{"type":"Feature","geometry":{"type":"Point","coordinates":[135.8762201,35.0078379]},"properties":{"id":4683531502,"name":"常夜燈"}},{"type":"Feature","geometry":{"type":"Point","coordinates":[141.5276242,38.6360886]},"properties":{"id":4744753780,"name":"寺浜灯台"}},{"type":"Feature","geometry":{"type":"Point","coordinates":[133.0685885,36.0352031]},"properties":{"id":4746884682,"name":"木路ヶ崎"}},{"type":"Feature","geometry":{"type":"Point","coordinates":[133.07681,34.333543]},"properties":{"id":4761499889,"name":"高根灯台"}},{"type":"Feature","geometry":{"type":"Point","coordinates":[130.2245159,32.9568459]},"properties":{"id":4770835174,"name":"夜灯鼻灯台"}},{"type":"Feature","geometry":{"type":"Point","coordinates":[129.006686,32.7532102]},"properties":{"id":4787585818,"name":"鷹ん巣灯台"}},{"type":"Feature","geometry":{"type":"Point","coordinates":[131.4793747,31.8064463]},"properties":{"id":4794349109,"name":"日向青島灯台"}},{"type":"Feature","geometry":{"type":"Point","coordinates":[130.408621,33.9097089]},"properties":{"id":4799927299,"name":"筑前大島神崎灯台"}},{"type":"Feature","geometry":{"type":"Point","coordinates":[130.8678478,33.9780316]},"properties":{"id":4851243816,"name":"六連島灯台"}},{"type":"Feature","geometry":{"type":"Point","coordinates":[132.6387548,33.8930081]},"properties":{"id":4874307507,"name":"釣島灯台"}},{"type":"Feature","geometry":{"type":"Point","coordinates":[131.2762195,34.5168427]},"properties":{"id":4946815929,"name":"相島灯台"}},{"type":"Feature","geometry":{"type":"Point","coordinates":[133.0016803,34.1178923]},"properties":{"id":5001121336,"name":"中渡島灯台"}},{"type":"Feature","geometry":{"type":"Point","coordinates":[132.9926152,34.1216644]},"properties":{"id":5001149886,"name":"来島洲ノ崎灯台"}},{"type":"Feature","geometry":{"type":"Point","coordinates":[139.2204814,34.3323567]},"properties":{"id":5011794338,"name":"高森灯台"}},{"type":"Feature","geometry":{"type":"Point","coordinates":[139.8274687,38.9186985]},"properties":{"id":5024075423,"name":"木造六角灯台"}},{"type":"Feature","geometry":{"type":"Point","coordinates":[127.996264,26.3989604]},"properties":{"id":5116084891,"name":"伊計島灯台"}},{"type":"Feature","geometry":{"type":"Point","coordinates":[135.2875617,35.6655401]},"properties":{"id":5181495821,"name":"ガンジャが鼻の赤灯台"}},{"type":"Feature","geometry":{"type":"Point","coordinates":[137.8024862,34.6479001]},"properties":{"id":5219565071,"name":"掛塚灯台"}},{"type":"Feature","geometry":{"type":"Point","coordinates":[131.8186259,33.9296954]},"properties":{"id":5228227126,"name":"火振岬灯台"}},{"type":"Feature","geometry":{"type":"Point","coordinates":[131.4401693,33.9847553]},"properties":{"id":5230228954,"name":"草山埼灯台"}},{"type":"Feature","geometry":{"type":"Point","coordinates":[126.7480187,26.3430178]},"properties":{"id":5267412818,"name":"具志川灯台"}},{"type":"Feature","geometry":{"type":"Point","coordinates":[126.7295524,26.3714208]},"properties":{"id":5277576781,"name":"久米島灯台"}},{"type":"Feature","geometry":{"type":"Point","coordinates":[129.9885381,32.383663]},"properties":{"id":5280047236,"name":"高浜灯台"}},{"type":"Feature","geometry":{"type":"Point","coordinates":[137.4106869,36.8978758]},"properties":{"id":5283613804,"name":"生地鼻灯台"}},{"type":"Feature","geometry":{"type":"Point","coordinates":[138.9652076,34.6516237]},"properties":{"id":5306107812,"name":"須崎恵比須島指向灯"}},{"type":"Feature","geometry":{"type":"Point","coordinates":[138.9870035,34.6587101]},"properties":{"id":5306108023,"name":"爪木崎灯台"}},{"type":"Feature","geometry":{"type":"Point","coordinates":[141.5205091,40.5376448]},"properties":{"id":5347021521,"name":"八戸港河原木西防波堤灯台"}},{"type":"Feature","geometry":{"type":"Point","coordinates":[141.5552625,40.5363402]},"properties":{"id":5352305635,"name":"八戸港蕪島防波堤灯台"}},{"type":"Feature","geometry":{"type":"Point","coordinates":[141.5524556,40.5344796]},"properties":{"id":5352305636,"name":"八戸港鮫内防波堤３号灯台"}},{"type":"Feature","geometry":{"type":"Point","coordinates":[135.1223149,34.6432093]},"properties":{"id":5356918059,"name":"赤灯台"}},{"type":"Feature","geometry":{"type":"Point","coordinates":[141.4621416,41.4303703]},"properties":{"id":5362680663,"name":"尻屋埼灯台"}},{"type":"Feature","geometry":{"type":"Point","coordinates":[138.9414569,34.5753585]},"properties":{"id":5363337392,"name":"神子元島灯台"}},{"type":"Feature","geometry":{"type":"Point","coordinates":[141.9599971,39.9471163]},"properties":{"id":5368179718,"name":"陸中弁天埼灯台"}},{"type":"Feature","geometry":{"type":"Point","coordinates":[141.3992532,40.8053375]},"properties":{"id":5386584781,"name":"陸奥塩釜灯台"}},{"type":"Feature","geometry":{"type":"Point","coordinates":[141.8487015,40.1698947]},"properties":{"id":5392919483,"name":"小袖港北防波堤灯台"}},{"type":"Feature","geometry":{"type":"Point","coordinates":[140.8149783,41.1208366]},"properties":{"id":5395117888,"name":"陸奥弁天島灯台"}},{"type":"Feature","geometry":{"type":"Point","coordinates":[138.7663759,34.7764265]},"properties":{"id":5407521302,"name":"仁科灯台"}},{"type":"Feature","geometry":{"type":"Point","coordinates":[134.4390379,35.6347803]},"properties":{"id":5414736532,"name":"矢城ヶ鼻灯台"}},{"type":"Feature","geometry":{"type":"Point","coordinates":[130.226024,33.0639172]},"properties":{"id":5436895313,"name":"沖ノ神瀬灯標"}},{"type":"Feature","geometry":{"type":"Point","coordinates":[141.9355997,40.0070943]},"properties":{"id":5488756791,"name":"陸中黒埼灯台"}},{"type":"Feature","geometry":{"type":"Point","coordinates":[139.1386016,34.8899542]},"properties":{"id":5515820174,"name":"門脇埼灯台"}},{"type":"Feature","geometry":{"type":"Point","coordinates":[141.500584,38.2466026]},"properties":{"id":5518858065,"name":"涛波岐埼灯台"}},{"type":"Feature","geometry":{"type":"Point","coordinates":[136.8976884,37.4053273]},"properties":{"id":5522690362,"name":"竜ヶ崎灯台"}},{"type":"Feature","geometry":{"type":"Point","coordinates":[145.5153977,43.16437]},"properties":{"id":5574015228,"name":"落合岬灯台"}},{"type":"Feature","geometry":{"type":"Point","coordinates":[140.8718571,41.016227]},"properties":{"id":5576292920,"name":"陸奥大島灯台"}},{"type":"Feature","geometry":{"type":"Point","coordinates":[137.2246578,34.8143821]},"properties":{"id":5583751233,"name":"三河港蒲郡東防波堤西灯台"}},{"type":"Feature","geometry":{"type":"Point","coordinates":[137.2475825,34.8089486]},"properties":{"id":5586611041,"name":"三河港三谷南防波堤東灯台"}},{"type":"Feature","geometry":{"type":"Point","coordinates":[137.2462589,34.8092338]},"properties":{"id":5586611042,"name":"三河港三谷南防波堤西灯台"}},{"type":"Feature","geometry":{"type":"Point","coordinates":[140.5485794,41.2279317]},"properties":{"id":5602286573,"name":"高野埼灯台"}},{"type":"Feature","geometry":{"type":"Point","coordinates":[140.0012277,40.7470855]},"properties":{"id":5602492756,"name":"鳥居埼灯台"}},{"type":"Feature","geometry":{"type":"Point","coordinates":[129.8645638,32.7448696]},"properties":{"id":5628825164,"name":"長崎港旭町防波堤灯台"}},{"type":"Feature","geometry":{"type":"Point","coordinates":[130.379585,30.392303]},"properties":{"id":5641173821,"name":"屋久島灯台"}},{"type":"Feature","geometry":{"type":"Point","coordinates":[126.8261116,26.3520479]},"properties":{"id":5680703128,"name":"赤灯台"}},{"type":"Feature","geometry":{"type":"Point","coordinates":[141.0336117,45.4602783]},"properties":{"id":5680876429,"name":"金田ノ岬灯台"}},{"type":"Feature","geometry":{"type":"Point","coordinates":[137.586988,36.9713473]},"properties":{"id":5697555021,"name":"宮崎鼻灯台"}},{"type":"Feature","geometry":{"type":"Point","coordinates":[140.2495497,41.1240471]},"properties":{"id":5705335092,"name":"小泊岬南灯台"}},{"type":"Feature","geometry":{"type":"Point","coordinates":[135.4058226,34.6743129]},"properties":{"id":5840721834,"name":"大阪常吉防波堤灯台"}},{"type":"Feature","geometry":{"type":"Point","coordinates":[135.4026217,34.6731597]},"properties":{"id":5843188965,"name":"大阪北港北灯台"}},{"type":"Feature","geometry":{"type":"Point","coordinates":[128.3240722,26.7494176]},"properties":{"id":5885062640,"name":"瀬嵩埼灯台"}},{"type":"Feature","geometry":{"type":"Point","coordinates":[139.5412159,39.1858903]},"properties":{"id":5925680415,"name":"飛島南灯台"}},{"type":"Feature","geometry":{"type":"Point","coordinates":[135.1421318,34.3210248]},"properties":{"id":5928104654,"name":"深日港東防波堤灯台"}},{"type":"Feature","geometry":{"type":"Point","coordinates":[135.1414113,34.3203508]},"properties":{"id":5928104655,"name":"深日港西防波堤灯台"}},{"type":"Feature","geometry":{"type":"Point","coordinates":[141.5187222,38.2726791]},"properties":{"id":5956686693,"name":"陸前黒埼灯台"}},{"type":"Feature","geometry":{"type":"Point","coordinates":[136.0756632,20.4238456]},"properties":{"id":5986615659,"name":"沖ノ鳥島灯台"}},{"type":"Feature","geometry":{"type":"Point","coordinates":[139.3447633,41.4981285]},"properties":{"id":6079666228,"name":"松前大島灯台"}},{"type":"Feature","geometry":{"type":"Point","coordinates":[140.2498987,41.4619596]},"properties":{"id":6079989908,"name":"白符漁港灯台"}},{"type":"Feature","geometry":{"type":"Point","coordinates":[140.2615166,41.4779912]},"properties":{"id":6080013612,"name":"福島漁港灯台"}},{"type":"Feature","geometry":{"type":"Point","coordinates":[140.262533,41.476402]},"properties":{"id":6080018132,"name":"福島港灯台"}},{"type":"Feature","geometry":{"type":"Point","coordinates":[140.4081424,41.517462]},"properties":{"id":6080031467,"name":"矢越岬灯台"}},{"type":"Feature","geometry":{"type":"Point","coordinates":[140.2940167,41.4892644]},"properties":{"id":6080037394,"name":"浦和漁港灯台"}},{"type":"Feature","geometry":{"type":"Point","coordinates":[140.3410231,41.50555]},"properties":{"id":6080045275,"name":"岩部漁港灯台"}},{"type":"Feature","geometry":{"type":"Point","coordinates":[131.4290904,33.5483381]},"properties":{"id":6094203855,"name":"田笛神社"}},{"type":"Feature","geometry":{"type":"Point","coordinates":[138.9545029,34.6692576]},"properties":{"id":6177426729,"name":"下田港西防波堤灯台"}},{"type":"Feature","geometry":{"type":"Point","coordinates":[130.9734442,34.4408348]},"properties":{"id":6238852095,"name":"川尻岬灯台"}},{"type":"Feature","geometry":{"type":"Point","coordinates":[133.3395886,36.171315]},"properties":{"id":6280975599,"name":"西郷岬灯台"}},{"type":"Feature","geometry":{"type":"Point","coordinates":[128.5999791,32.6127291]},"properties":{"id":6326626486,"name":"大瀬崎灯台"}},{"type":"Feature","geometry":{"type":"Point","coordinates":[136.9862961,34.5487321]},"properties":{"id":6360505498,"name":"神島灯台"}},{"type":"Feature","geometry":{"type":"Point","coordinates":[135.3338976,33.6928172]},"properties":{"id":6400491226,"name":"番所鼻灯台"}},{"type":"Feature","geometry":{"type":"Point","coordinates":[133.1734093,34.3578854]},"properties":{"id":6502636712,"name":"大浜埼燈台"}},{"type":"Feature","geometry":{"type":"Point","coordinates":[129.1122505,33.1617734]},"properties":{"id":6544180542,"name":"津和崎灯台"}},{"type":"Feature","geometry":{"type":"Point","coordinates":[133.056852,34.2177791]},"properties":{"id":6564741387,"name":"下小丸子島灯台"}},{"type":"Feature","geometry":{"type":"Point","coordinates":[133.0901677,35.5982658]},"properties":{"id":6567832372,"name":"多古港南西方照射灯"}},{"type":"Feature","geometry":{"type":"Point","coordinates":[144.865658,42.9481951]},"properties":{"id":6592294009,"name":"厚岸灯台"}},{"type":"Feature","geometry":{"type":"Point","coordinates":[139.4797742,35.3051089]},"properties":{"id":6608901891,"name":"赤灯台"}},{"type":"Feature","geometry":{"type":"Point","coordinates":[141.9310293,39.3477197]},"properties":{"id":6611455827,"name":"大槌港灯台"}},{"type":"Feature","geometry":{"type":"Point","coordinates":[141.2943506,44.4145705]},"properties":{"id":6654109549,"name":"赤岩埼灯台"}},{"type":"Feature","geometry":{"type":"Point","coordinates":[141.3233694,44.4393061]},"properties":{"id":6654109550,"name":"天売島灯台"}},{"type":"Feature","geometry":{"type":"Point","coordinates":[133.0809969,34.1920704]},"properties":{"id":6718565680,"name":"鶏小島灯台"}},{"type":"Feature","geometry":{"type":"Point","coordinates":[130.1270281,32.6890522]},"properties":{"id":6764134485,"name":"雲仙国埼灯台"}},{"type":"Feature","geometry":{"type":"Point","coordinates":[130.1093263,31.4160406]},"properties":{"id":6813940027,"name":"薩摩野間岬灯台"}},{"type":"Feature","geometry":{"type":"Point","coordinates":[139.8637488,40.6125129]},"properties":{"id":6844694037,"name":"舮作埼灯台"}},{"type":"Feature","geometry":{"type":"Point","coordinates":[141.0846093,38.2941894]},"properties":{"id":6896337206,"name":"花淵灯台"}},{"type":"Feature","geometry":{"type":"Point","coordinates":[133.1219679,34.2054809]},"properties":{"id":6982128551,"name":"伯方港東防波堤灯台"}},{"type":"Feature","geometry":{"type":"Point","coordinates":[139.4976689,40.5341942]},"properties":{"id":7026911705,"name":"久六島灯台"}},{"type":"Feature","geometry":{"type":"Point","coordinates":[133.0301958,34.1929828]},"properties":{"id":7036708986,"name":"カヤトマリ鼻灯台"}},{"type":"Feature","geometry":{"type":"Point","coordinates":[135.4622402,35.6021883]},"properties":{"id":7060374792,"name":"成生岬灯台"}},{"type":"Feature","geometry":{"type":"Point","coordinates":[131.6458238,34.6523582]},"properties":{"id":7063173188,"name":"竜神崎灯台"}},{"type":"Feature","geometry":{"type":"Point","coordinates":[131.6127997,34.6650577]},"properties":{"id":7063173189,"name":"高山岬灯台"}},{"type":"Feature","geometry":{"type":"Point","coordinates":[139.8383186,35.0247284]},"properties":{"id":7087501127,"name":"船形平島灯台"}},{"type":"Feature","geometry":{"type":"Point","coordinates":[135.79492,35.0471758]},"properties":{"id":7108476238,"name":"石灯籠"}},{"type":"Feature","geometry":{"type":"Point","coordinates":[141.7737996,44.5631818]},"properties":{"id":7278573540,"name":"金比羅岬灯台"}},{"type":"Feature","geometry":{"type":"Point","coordinates":[141.7268342,39.0351275]},"properties":{"id":7291354213,"name":"大船渡港珊琥島南灯台"}},{"type":"Feature","geometry":{"type":"Point","coordinates":[141.9972342,39.3998381]},"properties":{"id":7291797873,"name":"陸中大島灯台"}},{"type":"Feature","geometry":{"type":"Point","coordinates":[135.6706246,35.5242136]},"properties":{"id":7477915730,"name":"赤礁崎灯台"}},{"type":"Feature","geometry":{"type":"Point","coordinates":[136.0186482,35.7622122]},"properties":{"id":7496891200,"name":"立石岬灯台"}},{"type":"Feature","geometry":{"type":"Point","coordinates":[135.8167578,35.6369523]},"properties":{"id":7496891212,"name":"常神岬灯台"}},{"type":"Feature","geometry":{"type":"Point","coordinates":[135.5009799,35.5523805]},"properties":{"id":7498049891,"name":"押廻埼灯台"}},{"type":"Feature","geometry":{"type":"Point","coordinates":[135.341429,35.5475978]},"properties":{"id":7498049898,"name":"博奕岬灯台"}},{"type":"Feature","geometry":{"type":"Point","coordinates":[135.0648414,35.7128062]},"properties":{"id":7499899587,"name":"三津港島堤灯台"}},{"type":"Feature","geometry":{"type":"Point","coordinates":[141.6033692,38.8283852]},"properties":{"id":7594055713,"name":"岩井埼灯台"}},{"type":"Feature","geometry":{"type":"Point","coordinates":[140.7353429,42.1262728]},"properties":{"id":7672118655,"name":"沼尻漁港"}},{"type":"Feature","geometry":{"type":"Point","coordinates":[140.5920639,42.1127786]},"properties":{"id":7672176410,"name":"森漁港"}},{"type":"Feature","geometry":{"type":"Point","coordinates":[140.5446953,42.1192285]},"properties":{"id":7672193101,"name":"鷲ノ木漁港"}},{"type":"Feature","geometry":{"type":"Point","coordinates":[140.477346,42.1599406]},"properties":{"id":7672239354,"name":"石倉漁港"}},{"type":"Feature","geometry":{"type":"Point","coordinates":[130.1057135,32.5469115]},"properties":{"id":7679238200,"name":"七通瀬灯標"}},{"type":"Feature","geometry":{"type":"Point","coordinates":[140.6257427,36.3807212]},"properties":{"id":7726622237,"name":"磯埼灯台"}},{"type":"Feature","geometry":{"type":"Point","coordinates":[136.5972656,34.8293759]},"properties":{"id":7824997152,"name":"白子港南防波堤灯台"}},{"type":"Feature","geometry":{"type":"Point","coordinates":[136.5657036,34.7957185]},"properties":{"id":7847822928,"name":"東千里河芸マリーナ導流堤灯台"}},{"type":"Feature","geometry":{"type":"Point","coordinates":[133.0718938,34.2055801]},"properties":{"id":7875285198,"name":"枝越港新北防波堤灯台"}},{"type":"Feature","geometry":{"type":"Point","coordinates":[133.091808,34.2000252]},"properties":{"id":7875285206,"name":"有津港矢崎防波堤灯台"}},{"type":"Feature","geometry":{"type":"Point","coordinates":[133.1303829,34.2053571]},"properties":{"id":7875285213,"name":"伯方港一文字防波堤灯台"}},{"type":"Feature","geometry":{"type":"Point","coordinates":[133.0825357,34.1716257]},"properties":{"id":7875285232,"name":"宮窪港東防波堤灯台"}},{"type":"Feature","geometry":{"type":"Point","coordinates":[133.0336456,34.1560288]},"properties":{"id":7880694872,"name":"吉海港津倉防波堤灯台"}},{"type":"Feature","geometry":{"type":"Point","coordinates":[136.6184519,34.8549806]},"properties":{"id":7882390686,"name":"千代崎港南防波堤灯台"}},{"type":"Feature","geometry":{"type":"Point","coordinates":[131.1311124,34.7976125]},"properties":{"id":7885744351,"name":"北灯台"}},{"type":"Feature","geometry":{"type":"Point","coordinates":[133.0275605,34.104355]},"properties":{"id":7888235274,"name":"竜神島灯台"}},{"type":"Feature","geometry":{"type":"Point","coordinates":[135.9792399,33.6495559]},"properties":{"id":7908683727,"name":"駒ヶ崎灯台"}},{"type":"Feature","geometry":{"type":"Point","coordinates":[132.9893283,34.1187141]},"properties":{"id":7931652070,"name":"小浦崎灯台"}},{"type":"Feature","geometry":{"type":"Point","coordinates":[132.932318,34.1825227]},"properties":{"id":7946091915,"name":"アゴノ鼻灯台"}},{"type":"Feature","geometry":{"type":"Point","coordinates":[133.2905098,33.382386]},"properties":{"id":8076682317,"name":"山崎鼻灯台"}},{"type":"Feature","geometry":{"type":"Point","coordinates":[129.9647105,33.5379976]},"properties":{"id":8088235809,"name":"神集島港宮埼灯台"}},{"type":"Feature","geometry":{"type":"Point","coordinates":[141.2369674,45.0980941]},"properties":{"id":8132954347,"name":"仙法志埼灯台"}},{"type":"Feature","geometry":{"type":"Point","coordinates":[128.0879205,26.5370475]},"properties":{"id":8302234431,"name":"高墓埼灯台"}},{"type":"Feature","geometry":{"type":"Point","coordinates":[128.4014735,27.0400034]},"properties":{"id":8313812395,"name":"与論港供利指向灯"}},{"type":"Feature","geometry":{"type":"Point","coordinates":[130.0278658,28.3700722]},"properties":{"id":8317043896,"name":"トンビ埼灯台"}},{"type":"Feature","geometry":{"type":"Point","coordinates":[134.038825,33.3725889]},"properties":{"id":8349260355,"name":"羽根埼灯台"}},{"type":"Feature","geometry":{"type":"Point","coordinates":[131.9625114,33.2802666]},"properties":{"id":8355135669,"name":"海獺碆灯台"}},{"type":"Feature","geometry":{"type":"Point","coordinates":[130.2270481,32.2603158]},"properties":{"id":8537313295,"name":"幣串港南防波堤灯台"}},{"type":"Feature","geometry":{"type":"Point","coordinates":[130.2133712,32.2775262]},"properties":{"id":8537313296,"name":"片側港西防波堤灯台"}},{"type":"Feature","geometry":{"type":"Point","coordinates":[130.0133869,32.5294161]},"properties":{"id":8633858669,"name":"四季咲岬灯台"}},{"type":"Feature","geometry":{"type":"Point","coordinates":[130.1679138,32.3134516]},"properties":{"id":8668618254,"name":"長瀬灯標"}},{"type":"Feature","geometry":{"type":"Point","coordinates":[130.4608987,32.5294391]},"properties":{"id":8739651545,"name":"下大戸ノ鼻灯台"}},{"type":"Feature","geometry":{"type":"Point","coordinates":[130.4393982,32.4733337]},"properties":{"id":8741988995,"name":"牟田港牛瀬灯標"}},{"type":"Feature","geometry":{"type":"Point","coordinates":[130.4384765,32.4704891]},"properties":{"id":8741988996,"name":"牟田港2号防波堤北灯台"}},{"type":"Feature","geometry":{"type":"Point","coordinates":[130.3560317,32.3772216]},"properties":{"id":8755557820,"name":"唐網代鼻灯台"}},{"type":"Feature","geometry":{"type":"Point","coordinates":[130.3312062,32.6053115]},"properties":{"id":8785313767,"name":"湯島灯台"}},{"type":"Feature","geometry":{"type":"Point","coordinates":[130.4584106,32.5748728]},"properties":{"id":8809137032,"name":"肥後兜島灯台"}},{"type":"Feature","geometry":{"type":"Point","coordinates":[130.4442094,32.6252353]},"properties":{"id":8810360233,"name":"三角灯台"}},{"type":"Feature","geometry":{"type":"Point","coordinates":[131.4231169,33.5948237]},"properties":{"id":8816129015,"name":"豊後高田港導流堤灯台"}},{"type":"Feature","geometry":{"type":"Point","coordinates":[139.1112177,37.9506007]},"properties":{"id":8941650353,"name":"ABN"}},{"type":"Feature","geometry":{"type":"Point","coordinates":[141.9365104,45.521446]},"properties":{"id":9009885852,"name":"宗谷岬灯台"}},{"type":"Feature","geometry":{"type":"Point","coordinates":[141.0532925,41.726803]},"properties":{"id":9104682583,"name":"日浦岬灯台"}},{"type":"Feature","geometry":{"type":"Point","coordinates":[141.5697745,42.621653]},"properties":{"id":9113686224,"name":"苫小牧灯台"}},{"type":"Feature","geometry":{"type":"Point","coordinates":[139.564007,35.2710445]},"properties":{"id":9212243385,"name":"葉山灯台"}},{"type":"Feature","geometry":{"type":"Point","coordinates":[142.911036,42.1239702]},"properties":{"id":9366439887,"name":"様似港外西防波堤灯台"}},{"type":"Feature","geometry":{"type":"Point","coordinates":[142.9092979,42.1226334]},"properties":{"id":9366440015,"name":"様似港外東防波堤灯台"}},{"type":"Feature","geometry":{"type":"Point","coordinates":[141.4770056,43.8353243]},"properties":{"id":9570004220,"name":"別苅港北防波堤灯台"}},{"type":"Feature","geometry":{"type":"Point","coordinates":[140.1097441,35.0929564]},"properties":{"id":9623348178,"name":"鴨川灯台"}},{"type":"Feature","geometry":{"type":"Point","coordinates":[135.3646529,34.481018]},"properties":{"id":9678566107,"name":"阪南港新西防波堤南灯台"}},{"type":"Feature","geometry":{"type":"Point","coordinates":[135.3697908,34.4900904]},"properties":{"id":9678566108,"name":"阪南港岸和田新東防波堤灯台"}},{"type":"Feature","geometry":{"type":"Point","coordinates":[135.3668886,34.4922989]},"properties":{"id":9678595716,"name":"阪南港新西防波堤北灯台"}},{"type":"Feature","geometry":{"type":"Point","coordinates":[130.3609049,32.1967077]},"properties":{"id":9833352277,"name":"恋路島灯台"}},{"type":"Feature","geometry":{"type":"Point","coordinates":[128.8485849,32.6966758]},"properties":{"id":9858086733,"name":"常灯鼻"}},{"type":"Feature","geometry":{"type":"Point","coordinates":[131.8073992,32.6689048]},"properties":{"id":10159274387,"name":"島野浦港墓ケ谷外防波堤灯台"}},{"type":"Feature","geometry":{"type":"Point","coordinates":[131.8078877,32.6693511]},"properties":{"id":10159274388,"name":"島野浦港北外防波堤灯台"}},{"type":"Feature","geometry":{"type":"Point","coordinates":[131.8340715,32.6949354]},"properties":{"id":10173471335,"name":"北浦港宮野浦東防波堤灯台"}},{"type":"Feature","geometry":{"type":"Point","coordinates":[131.8194976,32.7013486]},"properties":{"id":10173471337,"name":"古江港防波堤灯台"}},{"type":"Feature","geometry":{"type":"Point","coordinates":[131.7653279,32.6426611]},"properties":{"id":10173471339,"name":"南浦港浦城防波堤灯台"}},{"type":"Feature","geometry":{"type":"Point","coordinates":[131.7548111,32.6100362]},"properties":{"id":10173471340,"name":"南浦港安井南防波堤灯台"}},{"type":"Feature","geometry":{"type":"Point","coordinates":[131.7164118,32.5908142]},"properties":{"id":10173471341,"name":"東海灯台"}},{"type":"Feature","geometry":{"type":"Point","coordinates":[131.8074434,32.6578776]},"properties":{"id":10173471342,"name":"五丈礁灯台"}},{"type":"Feature","geometry":{"type":"Point","coordinates":[131.8143844,32.6773805]},"properties":{"id":10173471343,"name":"博奕礁灯台"}},{"type":"Feature","geometry":{"type":"Point","coordinates":[131.6619408,32.4678683]},"properties":{"id":10188387948,"name":"門川港乙島南防波堤灯台"}},{"type":"Feature","geometry":{"type":"Point","coordinates":[131.6614401,32.4701481]},"properties":{"id":10188387949,"name":"門川港南防波堤灯台"}},{"type":"Feature","geometry":{"type":"Point","coordinates":[131.6753242,32.4710489]},"properties":{"id":10188387950,"name":"門川港浅海防波堤西灯台"}},{"type":"Feature","geometry":{"type":"Point","coordinates":[131.6955079,32.4696586]},"properties":{"id":10188387951,"name":"鍋埼灯台"}},{"type":"Feature","geometry":{"type":"Point","coordinates":[130.2371693,32.6113318]},"properties":{"id":10281553222,"name":"沖ノ瀬灯標"}},{"type":"Feature","geometry":{"type":"Point","coordinates":[133.7417101,34.2758859]},"properties":{"id":10572706609,"name":"多度津港内港東防波堤灯台"}},{"type":"Feature","geometry":{"type":"Point","coordinates":[133.3207986,33.9940048]},"properties":{"id":10633663830,"name":"新居浜港垣生埼灯台"}},{"type":"Feature","geometry":{"type":"Point","coordinates":[130.3821435,32.779658]},"properties":{"id":10680305246,"name":"島原灯台"}},{"type":"Feature","geometry":{"type":"Point","coordinates":[129.6777595,33.1640222]},"properties":{"id":10728388575,"name":"R Lt"}},{"type":"Feature","geometry":{"type":"Point","coordinates":[129.6459787,33.1878926]},"properties":{"id":10728412043,"name":"Y Lt"}},{"type":"Feature","geometry":{"type":"Point","coordinates":[129.6463934,33.185824]},"properties":{"id":10728412044,"name":"G Lt"}},{"type":"Feature","geometry":{"type":"Point","coordinates":[129.6472103,33.1859978]},"properties":{"id":10728412045,"name":"相浦港第3号灯浮標 FI G 3s"}},{"type":"Feature","geometry":{"type":"Point","coordinates":[129.6482063,33.1855664]},"properties":{"id":10728412046,"name":"相浦港第4号灯浮標 FI R 3s"}},{"type":"Feature","geometry":{"type":"Point","coordinates":[129.6478665,33.1829594]},"properties":{"id":10728412051,"name":"Y Lt"}},{"type":"Feature","geometry":{"type":"Point","coordinates":[129.6413278,33.1822513]},"properties":{"id":10728412060,"name":"相浦港第1号防波堤灯台 FI(2) R 6s"}},{"type":"Feature","geometry":{"type":"Point","coordinates":[129.6409738,33.1837536]},"properties":{"id":10728412061,"name":"相浦港第1号灯浮標 FI(2) G 6s"}},{"type":"Feature","geometry":{"type":"Point","coordinates":[129.6425877,33.1813309]},"properties":{"id":10728412084,"name":"G Lt"}},{"type":"Feature","geometry":{"type":"Point","coordinates":[129.6434028,33.1953552]},"properties":{"id":10728412085,"name":"Lt"}},{"type":"Feature","geometry":{"type":"Point","coordinates":[135.3514868,34.4622846]},"properties":{"id":10733819692,"name":"阪南港阪南3区防波堤灯台"}},{"type":"Feature","geometry":{"type":"Point","coordinates":[135.3530068,34.4624228]},"properties":{"id":10733819697,"name":"阪南港阪南第１区防波堤灯台"}},{"type":"Feature","geometry":{"type":"Point","coordinates":[138.2388941,38.0799263]},"properties":{"id":10859797904,"name":"姫津港南防波堤灯台"}},{"type":"Feature","geometry":{"type":"Point","coordinates":[136.2580987,34.0105833]},"properties":{"id":10937770862,"name":"九木港沓埼灯台"}},{"type":"Feature","geometry":{"type":"Point","coordinates":[133.7684577,34.3048897]},"properties":{"id":11061363757,"name":"丸亀港昭和町防波堤灯台"}},{"type":"Feature","geometry":{"type":"Point","coordinates":[145.7713544,43.3343439]},"properties":{"id":11108910032,"name":"ハボマイモシリ島灯台"}},{"type":"Feature","geometry":{"type":"Point","coordinates":[129.9570581,33.528794]},"properties":{"id":11303008502,"name":"女瀬鼻灯台"}},{"type":"Feature","geometry":{"type":"Point","coordinates":[138.2839281,37.9895934]},"properties":{"id":11411000448,"name":"真野湾消波提灯台"}},{"type":"Feature","geometry":{"type":"Point","coordinates":[138.2659317,37.9767585]},"properties":{"id":11411056944,"name":"佐渡二見港防波堤灯台"}},{"type":"Feature","geometry":{"type":"Point","coordinates":[137.2287484,37.2961318]},"properties":{"id":11505398236,"name":"小木防波堤灯台"}},{"type":"Feature","geometry":{"type":"Point","coordinates":[136.7189506,37.0777347]},"properties":{"id":11515327539,"name":"福浦灯台"}},{"type":"Feature","geometry":{"type":"Point","coordinates":[133.7544894,33.5207689]},"properties":{"id":11623045039,"name":"手結崎灯台"}},{"type":"Feature","geometry":{"type":"Point","coordinates":[132.7846767,32.7561916]},"properties":{"id":11637195579,"name":"小才角港防波堤灯台"}},{"type":"Feature","geometry":{"type":"Point","coordinates":[129.5679844,28.4563782]},"properties":{"id":11693344422,"name":"嘉渡漁港指向灯"}},{"type":"Feature","geometry":{"type":"Point","coordinates":[129.606127,28.4378464]},"properties":{"id":11703890414,"name":"竜郷港阿丹埼北東方照射灯"}},{"type":"Feature","geometry":{"type":"Point","coordinates":[143.0997287,42.0446486]},"properties":{"id":11868104697,"name":"笛舞港 西防波堤灯台"}},{"type":"Feature","geometry":{"type":"Point","coordinates":[143.0604665,42.0627711]},"properties":{"id":11868104715,"name":"旭港 南防波堤灯台"}},{"type":"Feature","geometry":{"type":"Point","coordinates":[142.9842489,42.0984113]},"properties":{"id":11868104716,"name":"冬島港 第二南防波堤灯台"}},{"type":"Feature","geometry":{"type":"Point","coordinates":[142.8719984,42.1318336]},"properties":{"id":11868155354,"name":"鵜苫港 南防波堤灯台"}},{"type":"Feature","geometry":{"type":"Point","coordinates":[142.3678171,42.3235394]},"properties":{"id":11885818180,"name":"静内港 南防波堤灯台"}},{"type":"Feature","geometry":{"type":"Point","coordinates":[142.2020354,42.4328079]},"properties":{"id":11892913187,"name":"厚賀港 南防波堤灯台"}},{"type":"Feature","geometry":{"type":"Point","coordinates":[142.0703691,42.4716785]},"properties":{"id":11898006921,"name":"日高門別港 南防波堤灯台"}},{"type":"Feature","geometry":{"type":"Point","coordinates":[133.3339503,33.9930195]},"properties":{"id":11901818355,"name":"新居浜港多喜浜西防波堤灯台"}},{"type":"Feature","geometry":{"type":"Point","coordinates":[133.3360838,33.9924527]},"properties":{"id":11901818356,"name":"新居浜港多喜浜東防波堤灯台"}},{"type":"Feature","geometry":{"type":"Point","coordinates":[133.291166,33.9856728]},"properties":{"id":11901818357,"name":"新居浜港沢津沖防波堤西灯台"}},{"type":"Feature","geometry":{"type":"Point","coordinates":[142.2729095,42.377423]},"properties":{"id":11909020673,"name":"節婦港 南防波堤灯台"}},{"type":"Feature","geometry":{"type":"Point","coordinates":[142.4482658,42.2963013]},"properties":{"id":11909138070,"name":"東静内港 西防波堤灯台"}},{"type":"Feature","geometry":{"type":"Point","coordinates":[136.2061557,34.072804]},"properties":{"id":11930760452,"name":"尾鷲港第一防波堤灯台"}},{"type":"Feature","geometry":{"type":"Point","coordinates":[136.2058579,34.0719693]},"properties":{"id":11930760453,"name":"尾鷲港第二防波堤灯台"}},{"type":"Feature","geometry":{"type":"Point","coordinates":[133.9323197,34.593194]},"properties":{"id":11998069738,"name":"飛行場灯台"}},{"type":"Feature","geometry":{"type":"Point","coordinates":[129.6097778,33.1736794]},"properties":{"id":12062871978,"name":"大平瀬灯台"}},{"type":"Feature","geometry":{"type":"Point","coordinates":[133.8557906,34.7621741]},"properties":{"id":12123484126,"name":"飛行場灯台"}},{"type":"Feature","geometry":{"type":"Point","coordinates":[134.0153476,34.2189668]},"properties":{"id":12343240893,"name":"飛行場灯台"}},{"type":"Feature","geometry":{"type":"Point","coordinates":[139.6275671,35.1302008]},"properties":{"id":12364319660,"name":"安房崎灯台"}},{"type":"Feature","geometry":{"type":"Point","coordinates":[132.4242545,33.1558226]},"properties":{"id":12389387719,"name":"能登崎灯台"}},{"type":"Feature","geometry":{"type":"Point","coordinates":[132.7019926,33.9264434]},"properties":{"id":12428707869,"name":"頭崎灯台"}},{"type":"Feature","geometry":{"type":"Point","coordinates":[137.9927425,37.1090399]},"properties":{"id":12669168072,"name":"能生灯台"}},{"type":"Feature","geometry":{"type":"Point","coordinates":[136.8443957,34.7577154]},"properties":{"id":12670470070,"name":"野間埼灯台"}},{"type":"Feature","geometry":{"type":"Point","coordinates":[141.3801571,43.1109618]},"properties":{"id":12681440162,"name":"丘珠空港飛行場灯台"}},{"type":"Feature","geometry":{"type":"Point","coordinates":[129.5888349,33.1700388]},"properties":{"id":12741627316,"name":"高島港外防波堤灯台"}},{"type":"Feature","geometry":{"type":"Point","coordinates":[129.5933323,33.1713733]},"properties":{"id":12741627317,"name":"高島港北防波堤立標"}},{"type":"Feature","geometry":{"type":"Point","coordinates":[129.5815378,33.1608037]},"properties":{"id":12741841849,"name":"牛ヶ首灯台"}},{"type":"Feature","geometry":{"type":"Point","coordinates":[135.3461022,34.7206478]},"properties":{"id":12811830432,"name":"大関酒造今津灯台跡地"}},{"type":"Feature","geometry":{"type":"Point","coordinates":[130.5668436,31.5974913]},"properties":{"id":12942487444,"name":"鹿児島港新南防波堤灯台"}},{"type":"Feature","geometry":{"type":"Point","coordinates":[133.2567405,35.4333817]},"properties":{"id":12949118479,"name":"安来港南防波堤灯台"}},{"type":"Feature","geometry":{"type":"Point","coordinates":[141.9993601,39.7509375]},"properties":{"id":12977758338,"name":"陸中真埼灯台"}},{"type":"Feature","geometry":{"type":"Point","coordinates":[144.1978039,43.043792]},"properties":{"id":13104662721,"name":"飛行場灯台"}},{"type":"Feature","geometry":{"type":"Point","coordinates":[135.3389742,34.4755668]},"properties":{"id":13166581190,"name":"阪南港北防波堤灯台"}},{"type":"Feature","geometry":{"type":"Point","coordinates":[134.5224858,34.6646448]},"properties":{"id":13341776405,"name":"家島港網手西防波堤灯台"}},{"type":"Feature","geometry":{"type":"Point","coordinates":[130.7244686,31.8010411]},"properties":{"id":13523207190,"name":"飛行場灯台"}},{"type":"Feature","geometry":{"type":"Point","coordinates":[131.2750885,33.9354206]},"properties":{"id":13525496137,"name":"飛行場灯台"}},{"type":"Feature","geometry":{"type":"Point","coordinates":[133.1954237,34.4017796]},"properties":{"id":13542761020,"name":"尾道灯台"}}]}